COMMENT,ORIGINATOR,NORAD_CAT_ID,OBJECT_NAME,OBJECT_TYPE,CLASSIFICATION_TYPE,INTLDES,EPOCH,EPOCH_MICROSECONDS,MEAN_MOTION,ECCENTRICITY,INCLINATION,RA_OF_ASC_NODE,ARG_OF_PERICENTER,MEAN_ANOMALY,EPHEMERIS_TYPE,ELEMENT_SET_NO,REV_AT_EPOCH,BSTAR,MEAN_MOTION_DOT,MEAN_MOTION_DDOT,FILE,TLE_LINE0,TLE_LINE1,TLE_LINE2,OBJECT_ID,OBJECT_NUMBER,SEMIMAJOR_AXIS,PERIOD,APOGEE,PERIGEE,DECAYED
"GENERATED VIA SPACETRACK.ORG API","18 SPCS","56232","FENGYUN 3G","PAYLOAD","U","23055A","2023-07-29 08:29:24","647136","15.53723321","0.0008717","49.9988","20.1081","317.3387","42.6903","0","999","1620","0.00050577","0.00032746","0","3966354","0 FENGYUN 3G","1 56232U 23055A   23210.35375749  .00032746  00000-0  50577-3 0  9993","2 56232  49.9988  20.1081 0008717 317.3387  42.6903 15.53723321 16209","2023-055A","56232","6784.003","92.681","411.782","399.955","0"
"GENERATED VIA SPACETRACK.ORG API","18 SPCS","56232","FENGYUN 3G","PAYLOAD","U","23055A","2023-07-29 19:17:40","445376","15.53753502","0.0008753","49.999","17.7848","319.3003","40.731","0","999","1627","0.00050928","0.00033015","0","3966680","0 FENGYUN 3G","1 56232U 23055A   23210.80394034  .00033015  00000-0  50928-3 0  9991","2 56232  49.9990  17.7848 0008753 319.3003  40.7310 15.53753502 16274","2023-055A","56232","6783.915","92.679","411.718","399.843","0"
"GENERATED VIA SPACETRACK.ORG API","18 SPCS","56232","FENGYUN 3G","PAYLOAD","U","23055A","2023-07-30 01:28:06","250080","15.53772118","0.0008767","49.9991","16.4571","320.3482","39.6843","0","999","1631","0.00051227","0.00033236","0","3966908","0 FENGYUN 3G","1 56232U 23055A   23211.06118345  .00033236  00000-0  51227-3 0  9997","2 56232  49.9991  16.4571 0008767 320.3482  39.6843 15.53772118 16319","2023-055A","56232","6783.861","92.678","411.674","399.779","0"
"GENERATED VIA SPACETRACK.ORG API","18 SPCS","56232","FENGYUN 3G","PAYLOAD","U","23055A","2023-07-30 10:43:44","528160","15.53795823","0.0008796","49.9991","14.4655","322.0715","37.9632","0","999","1637","0.00047299","0.00030668","0","3967219","0 FENGYUN 3G","1 56232U 23055A   23211.44704315  .00030668  00000-0  47299-3 0  9997","2 56232  49.9991  14.4655 0008796 322.0715  37.9632 15.53795823 16371","2023-055A","56232","6783.792","92.676","411.624","399.690","0"
"GENERATED VIA SPACETRACK.ORG API","18 SPCS","56232","FENGYUN 3G","PAYLOAD","U","23055A","2023-07-30 16:54:09","703008","15.53815561","0.0008799","49.9991","13.1378","323.2213","36.815","0","999","1641","0.00051801","0.00033669","0","3967481","0 FENGYUN 3G","1 56232U 23055A   23211.70427897  .00033669  00000-0  51801-3 0  9991","2 56232  49.9991  13.1378 0008799 323.2213  36.8150 15.53815561 16418","2023-055A","56232","6783.735","92.675","411.569","399.631","0"
"GENERATED VIA SPACETRACK.ORG API","18 SPCS","56232","FENGYUN 3G","PAYLOAD","U","23055A","2023-07-31 00:37:10","813440","15.53838637","0.0008792","49.9992","11.478","324.4768","35.5613","0","999","1646","0.00051301","0.00033367","0","3967759","0 FENGYUN 3G","1 56232U 23055A   23212.02581960  .00033367  00000-0  51301-3 0  9999","2 56232  49.9992  11.4780 0008792 324.4768  35.5613 15.53838637 16462","2023-055A","56232","6783.668","92.674","411.497","399.568","0"
"GENERATED VIA SPACETRACK.ORG API","18 SPCS","56232","FENGYUN 3G","PAYLOAD","U","23055A","2023-07-31 09:52:47","648640","15.5386536","0.0008798","49.9991","9.4864","326.1115","33.929","0","999","1652","0.00052425","0.00034145","0","3968085","0 FENGYUN 3G","1 56232U 23055A   23212.41166260  .00034145  00000-0  52425-3 0  9997","2 56232  49.9991   9.4864 0008798 326.1115  33.9290 15.53865360 16525","2023-055A","56232","6783.590","92.672","411.423","399.487","0"
"GENERATED VIA SPACETRACK.ORG API","18 SPCS","56232","FENGYUN 3G","PAYLOAD","U","23055A","2023-07-31 17:35:47","914944","15.53886859","0.0008818","49.9991","7.8269","327.6287","32.4139","0","999","1657","0.0005276","0.00034395","0","3968364","0 FENGYUN 3G","1 56232U 23055A   23212.73319346  .00034395  00000-0  52760-3 0  9996","2 56232  49.9991   7.8269 0008818 327.6287  32.4139 15.53886859 16572","2023-055A","56232","6783.527","92.671","411.374","399.411","0"
"GENERATED VIA SPACETRACK.ORG API","18 SPCS","56232","FENGYUN 3G","PAYLOAD","U","23055A","2023-07-31 23:46:11","837856","15.53904233","0.0008819","49.999","6.4992","328.634","31.4101","0","999","1661","0.0005099","0.00033241","0","3968667","0 FENGYUN 3G","1 56232U 23055A   23212.99041479  .00033241  00000-0  50990-3 0  9995","2 56232  49.9990   6.4992 0008819 328.6340  31.4101 15.53904233 16611","2023-055A","56232","6783.477","92.670","411.324","399.359","0"
"GENERATED VIA SPACETRACK.ORG API","18 SPCS","56232","FENGYUN 3G","PAYLOAD","U","23055A","2023-08-01 18:17:22","161120","15.53954577","0.0008862","49.9992","2.516","331.6631","28.3853","0","999","1673","0.00050527","0.00032996","0","3969143","0 FENGYUN 3G","1 56232U 23055A   23213.76206205  .00032996  00000-0  50527-3 0  9993","2 56232  49.9992   2.5160 0008862 331.6631  28.3853 15.53954577 16730","2023-055A","56232","6783.330","92.667","411.207","399.184","0"
"GENERATED VIA SPACETRACK.ORG API","18 SPCS","56232","FENGYUN 3G","PAYLOAD","U","23055A","2023-08-02 00:27:45","86112","15.53974482","0.0008875","49.9993","1.1881","332.6511","27.3989","0","999","1677","0.0005383","0.0003522","0","3969409","0 FENGYUN 3G","1 56232U 23055A   23214.01927183  .00035220  00000-0  53830-3 0  9990","2 56232  49.9993   1.1881 0008875 332.6511  27.3989 15.53974482 16778","2023-055A","56232","6783.272","92.666","411.157","399.117","0"
"GENERATED VIA SPACETRACK.ORG API","18 SPCS","56232","FENGYUN 3G","PAYLOAD","U","23055A","2023-08-02 09:43:19","1856","15.53999837","0.000889","49.9994","359.1962","334.2062","25.8461","0","999","1683","0.00050739","0.00033193","0","3969723","0 FENGYUN 3G","1 56232U 23055A   23214.40508104  .00033193  00000-0  50739-3 0  9993","2 56232  49.9994 359.1962 0008890 334.2062  25.8461 15.53999837 16837","2023-055A","56232","6783.199","92.664","411.094","399.033","0"
"GENERATED VIA SPACETRACK.ORG API","18 SPCS","56232","FENGYUN 3G","PAYLOAD","U","23055A","2023-08-02 11:15:54","586656","15.54005434","0.0008894","49.9995","358.8642","334.4773","25.5754","0","999","1684","0.00052244","0.00034203","0","3970020","0 FENGYUN 3G","1 56232U 23055A   23214.46938179  .00034203  00000-0  52244-3 0  9994","2 56232  49.9995 358.8642 0008894 334.4773  25.5754 15.54005434 16849","2023-055A","56232","6783.182","92.664","411.080","399.014","0"
"GENERATED VIA SPACETRACK.ORG API","18 SPCS","56232","FENGYUN 3G","PAYLOAD","U","23055A","2023-08-03 13:54:24","26400","15.5206248","0.0005492","50.0019","353.1543","273.0836","172.3135","0","999","1701","0.00052244","0.00031818","0","3970617","0 FENGYUN 3G","1 56232U 23055A   23215.57944475  .00031818  00000-0  52244-3 0  9992","2 56232  50.0019 353.1543 0005492 273.0836 172.3135 15.52062480 17012","2023-055A","56232","6788.842","92.780","414.436","406.979","0"
"GENERATED VIA SPACETRACK.ORG API","18 SPCS","56232","FENGYUN 3G","PAYLOAD","U","23055A","2023-08-03 18:10:32","596608","15.52072147","0.0005495","49.9998","352.2389","272.6522","87.3815","0","999","1704","0.00050048","0.00030466","0","3970875","0 FENGYUN 3G","1 56232U 23055A   23215.75732172  .00030466  00000-0  50048-3 0  9999","2 56232  49.9998 352.2389 0005495 272.6522  87.3815 15.52072147 17047","2023-055A","56232","6788.814","92.779","414.409","406.948","0"
"GENERATED VIA SPACETRACK.ORG API","18 SPCS","56232","FENGYUN 3G","PAYLOAD","U","23055A","2023-08-03 22:48:40","40352","15.52085079","0.0005501","49.9996","351.2445","273.41","86.6238","0","999","1707","0.00050128","0.0003053","0","3971178","0 FENGYUN 3G","1 56232U 23055A   23215.95046343  .00030530  00000-0  50128-3 0  9990","2 56232  49.9996 351.2445 0005501 273.4100  86.6238 15.52085079 17078","2023-055A","56232","6788.776","92.778","414.376","406.907","0"
"GENERATED VIA SPACETRACK.ORG API","18 SPCS","56232","FENGYUN 3G","PAYLOAD","U","23055A","2023-08-04 11:10:19","370208","15.52114906","0.0005515","49.9995","348.5941","275.622","84.4118","0","999","1715","0.00050101","0.00030547","0","3971491","0 FENGYUN 3G","1 56232U 23055A   23216.46550197  .00030547  00000-0  50101-3 0  9993","2 56232  49.9995 348.5941 0005515 275.6220  84.4118 15.52114906 17153","2023-055A","56232","6788.689","92.777","414.298","406.810","0"
"GENERATED VIA SPACETRACK.ORG API","18 SPCS","56232","FENGYUN 3G","PAYLOAD","U","23055A","2023-08-04 17:21:08","725824","15.52129026","0.0005531","49.9996","347.2687","277.148","82.8858","0","999","1719","0.00050309","0.00030692","0","3971740","0 FENGYUN 3G","1 56232U 23055A   23216.72301766  .00030692  00000-0  50309-3 0  9999","2 56232  49.9996 347.2687 0005531 277.1480  82.8858 15.52129026 17196","2023-055A","56232","6788.648","92.776","414.268","406.758","0"
"GENERATED VIA SPACETRACK.ORG API","18 SPCS","56232","FENGYUN 3G","PAYLOAD","U","23055A","2023-08-05 04:10:04","427904","15.52163161","0.0005566","49.9996","344.9482","278.7253","81.3083","0","999","1726","0.00060497","0.00037078","0","3972022","0 FENGYUN 3G","1 56232U 23055A   23217.17366236  .00037078  00000-0  60497-3 0  9996","2 56232  49.9996 344.9482 0005566 278.7253  81.3083 15.52163161 17266","2023-055A","56232","6788.549","92.774","414.192","406.635","0"
"GENERATED VIA SPACETRACK.ORG API","18 SPCS","56232","FENGYUN 3G","PAYLOAD","U","23055A","2023-08-05 11:53:35","58624","15.52189278","0.0005551","49.9996","343.2907","280.0411","79.9929","0","999","1731","0.00061639","0.00037826","0","3972310","0 FENGYUN 3G","1 56232U 23055A   23217.49554466  .00037826  00000-0  61639-3 0  9995","2 56232  49.9996 343.2907 0005551 280.0411  79.9929 15.52189278 17311","2023-055A","56232","6788.472","92.772","414.106","406.569","0"
